TUPZ ? ? i P D 20181026 0159 03.20 GAU 2.00e-02 -1.00e+00 -1.00e+00 -1.00e+00
TUPZ ? ? i S ? 20181026 0159 04.69 GAU 4.00e-02 -1.00e+00 -1.00e+00 -1.00e+00
SNJZ ? ? i P C 20181026 0159 10.95 GAU 2.00e-02 -1.00e+00 -1.00e+00 -1.00e+00
SNJZ ? ? i S ? 20181026 0159 18.60 GAU 4.00e-02 -1.00e+00 -1.00e+00 -1.00e+00
MORZ ? ? i P C 20181026 0159 11.58 GAU 2.00e-02 -1.00e+00 -1.00e+00 -1.00e+00
MORZ ? ? i S ? 20181026 0159 19.52 GAU 4.00e-02 -1.00e+00 -1.00e+00 -1.00e+00
CAZZ ? ? i P D 20181026 0159 03.96 GAU 2.00e-02 -1.00e+00 -1.00e+00 -1.00e+00
CAZZ ? ? i S ? 20181026 0159 06.15 GAU 4.00e-02 -1.00e+00 -1.00e+00 -1.00e+00
ALFZ ? ? i P D 20181026 0159 09.03 GAU 2.00e-02 -1.00e+00 -1.00e+00 -1.00e+00
ALFZ ? ? i S ? 20181026 0159 15.23 GAU 4.00e-02 -1.00e+00 -1.00e+00 -1.00e+00
