NLLOC "./loc/203961.20181026.015903.grid0" "LOCATED" "Location completed."
SIGNATURE "Sergi   obs:./obs/203961.obs   NLLoc:v7.00.02(17Oct2018)   run:28Jun2022 16h04m27"
COMMENT "Localizacion de evento id:203961"
GRID  101 101 101  -50 -50 -5.603  1 1 1 PROB_DENSITY
SEARCH OCTREE nInitial 1000 nEvaluated 50000 smallestNodeSide 0.078125/0.078125/0.078906 oct_tree_integral 6.469154e+00 scatter_volume 6.469154e+00
HYPOCENTER  x 9.10156 y 11.2891 z -5.56355  OT 0.694535  ix -1 iy -1 iz -1 MAXIMUM_LIKELIHOOD
GEOGRAPHIC  OT 2018 10 26  01 59 0.694535  Lat -33.298112 Long -69.723514 Depth -5.563547
QUALITY  Pmax 9.32707e+20 MFmin 17.7394 MFmax 19.2267 RMS 0.11242 Nphs 10 Gap 313.247 Dist 13.0244 Mamp -9.90 0 Mdur -9.90 0
VPVSRATIO  VpVsRatio 1.76615  Npair 5  Diff 6.45
STATISTICS  ExpectX 9.92234 Y 13.5578 Z -1.14747  CovXX 5.44528 XY 2.26425 XZ -3.34402 YY 10.4884 YZ 14.9472 ZZ 79.1867 EllAz1  304.488 Dip1  -8.4092 Len1  3.4079 Az2  215.725 Dip2  8.30449 Len2  5.76939 Len3  1.705506e+01
STAT_GEOG  ExpectLat -33.277725 Long -69.714717 Depth -1.147473
TRANSFORM  AZIMUTHAL_EQUIDIST RefEllipsoid WGS-84  LatOrig -33.399562  LongOrig -69.821334  RotCW 0.000000
QML_OriginQuality  assocPhCt 10  usedPhCt 10  assocStaCt -1  usedStaCt 5  depthPhCt -1  stdErr 0.11242  azGap 313.247  secAzGap 313.247  gtLevel -  minDist 13.0244 maxDist 66.5565 medDist 48.1141
QML_OriginUncertainty  horUnc -1  minHorUnc 3.24486  maxHorUnc 5.11061  azMaxHorUnc 20.9613
QML_ConfidenceEllipsoid  semiMajorAxisLength 17.0551  semiMinorAxisLength 3.4079  semiIntermediateAxisLength 5.76939  majorAxisPlunge 0  majorAxisAzimuth 0  majorAxisRotation 190.168
FOCALMECH  Hyp  -33.298112 -69.723514 -5.563547 Mech  0 0 0 mf  0 nObs 0
DIFFERENTIAL  Nhyp 0
PHASE ID Ins Cmp On Pha  FM Date     HrMn   Sec     Err  ErrMag    Coda      Amp       Per       PriorWt  >   TTpred    Res       Weight    StaLoc(X  Y         Z)        SDist    SAzim  RAz  RDip RQual    Tcorr       TTerr
TUPZ         ?    ?    i P      D 20181026 0159    3.2000 GAU  2.00e-02 -1.00e+00 -1.00e+00 -1.00e+00    1.0000 >    2.5245   -0.0190    1.6731   -2.1650    4.7544   -4.2620   13.0244 239.89 239.9 200.0  0     0.0000   -1.0000
TUPZ         ?    ?    i S      ? 20181026 0159    4.6900 GAU  4.00e-02 -1.00e+00 -1.00e+00 -1.00e+00    1.0000 >    4.2411   -0.2457    0.3746   -2.1650    4.7544   -4.2620   13.0244 239.89 239.9 200.0  0     0.0000   -1.0000
CAZZ         ?    ?    i P      D 20181026 0159    3.9600 GAU  2.00e-02 -1.00e+00 -1.00e+00 -1.00e+00    1.0000 >    3.2494    0.0161    1.6823   -6.4642    4.4817   -3.4860   16.9892 246.38 246.4 200.0  0     0.0000   -1.0000
CAZZ         ?    ?    i S      ? 20181026 0159    6.1500 GAU  4.00e-02 -1.00e+00 -1.00e+00 -1.00e+00    1.0000 >    5.4589   -0.0035    1.6395   -6.4642    4.4817   -3.4860   16.9892 246.38 246.4 200.0  0     0.0000   -1.0000
ALFZ         ?    ?    i P      D 20181026 0159    9.0300 GAU  2.00e-02 -1.00e+00 -1.00e+00 -1.00e+00    1.0000 >    8.2991    0.0364    1.4332  -31.2858  -14.8610   -3.5300   48.1141 237.08 237.1 200.0  0     0.0000   -1.0000
ALFZ         ?    ?    i S      ? 20181026 0159   15.2300 GAU  4.00e-02 -1.00e+00 -1.00e+00 -1.00e+00    1.0000 >   13.9425    0.5930    0.1911  -31.2858  -14.8610   -3.5300   48.1141 237.08 237.1 200.0  0     0.0000   -1.0000
SNJZ         ?    ?    i P      C 20181026 0159   10.9500 GAU  2.00e-02 -1.00e+00 -1.00e+00 -1.00e+00    1.0000 >   10.2675   -0.0120    1.4181  -11.2461  -45.7726   -3.3420   60.5810 199.63 199.6 200.0  0     0.0000   -1.0000
SNJZ         ?    ?    i S      ? 20181026 0159   18.6000 GAU  4.00e-02 -1.00e+00 -1.00e+00 -1.00e+00    1.0000 >   17.2494    0.6561    0.1838  -11.2461  -45.7726   -3.3420   60.5810 199.63 199.6 200.0  0     0.0000   -1.0000
MORZ         ?    ?    i P      C 20181026 0159   11.5800 GAU  2.00e-02 -1.00e+00 -1.00e+00 -1.00e+00    1.0000 >   11.0950   -0.2095    0.6932  -22.7332  -47.1602   -1.9310   66.5565 208.58 208.6 200.0  0     0.0000   -1.0000
MORZ         ?    ?    i S      ? 20181026 0159   19.5200 GAU  4.00e-02 -1.00e+00 -1.00e+00 -1.00e+00    1.0000 >   18.6396    0.1859    0.7112  -22.7332  -47.1602   -1.9310   66.5565 208.58 208.6 200.0  0     0.0000   -1.0000
END_PHASE
SCATTER Nsamples 4968
  11.4839   14.4398   -5.0043  4.94e+01
   5.3195   16.4978   33.3319  4.73e+01
   9.5949   17.8161   22.5544  4.73e+01
   9.1302   10.7731   -4.5174  5.15e+01
  14.3257   14.4505   -5.4946  4.94e+01
  14.3827   19.4120   -0.2704  4.73e+01
   8.1486   11.8611   -3.6155  4.73e+01
  11.2857   15.4209    1.1856  4.73e+01
   7.1860   17.9778   29.0696  4.73e+01
  11.8058   17.1500    1.8199  4.73e+01
   9.2491    9.8337   -4.8139  5.15e+01
   8.8220   10.5089   -4.7403  5.15e+01
   9.4809   13.4356   -4.7997  5.15e+01
   8.7219   12.7327   -4.8964  5.15e+01
   7.8321    9.5273   -5.5195  5.15e+01
  14.3496   17.1369    3.0277  4.73e+01
  14.3521   16.1921   -5.0194  4.94e+01
  11.6667   17.9439   21.4667  4.73e+01
   9.0865    8.7323   -5.3262  5.15e+01
  14.3875   16.2897    1.6438  4.73e+01
  10.1574   12.9266   -3.6751  4.94e+01
  10.3704   14.2085   -5.1829  4.94e+01
   7.0466   11.1352   -5.4261  4.94e+01
   8.7361    9.4770   -4.6828  5.15e+01
  11.6960   12.7129   -5.3529  4.94e+01
   9.0054    9.6135   -4.5752  5.15e+01
   6.2640   16.1338   31.2604  4.73e+01
   8.7058   14.1267   -3.8584  4.94e+01
   9.0753   13.1601   -3.4786  4.94e+01
   9.9544   18.4589   25.0655  4.73e+01
  15.2216   19.9818    0.2847  4.73e+01
   8.9173   13.3481   -4.8504  5.15e+01
   7.3996   21.7736    7.2697  4.73e+01
   9.1731    9.8043   -4.5735  5.15e+01
   8.4218   10.4957   -5.1317  5.15e+01
  15.4772   18.9336   -2.8541  4.73e+01
   8.7710    9.8314   -4.5244  5.15e+01
   9.1948   13.4012   -4.3555  5.15e+01
   9.8562   15.3898   -2.4562  4.73e+01
  13.8525   16.5786   -5.3233  4.94e+01
  12.2304   14.6002   -4.9325  4.94e+01
   9.6031    9.7286   -5.3220  5.14e+01
   9.3403   13.3386   -4.9169  5.14e+01
   9.4489   12.3704   -3.5910  4.94e+01
   8.7023   13.1545   -5.4025  5.14e+01
   8.9996   11.8614   -4.6285  5.14e+01
  11.3743   17.2302   -4.3868  4.73e+01
   9.8413   11.6038   -4.2960  5.14e+01
   9.6780   12.7769   -5.4753  5.14e+01
  12.8063   14.2377   -4.7202  4.94e+01
   8.9431   13.1917   -5.3090  5.14e+01
   9.6095   10.4969   -4.5631  5.14e+01
   9.5680   11.4479   -4.2988  5.14e+01
   8.3392   11.8775   -5.4093  5.14e+01
   7.9580   14.5731   -3.3240  4.73e+01
   9.8698   11.3175   -5.4071  5.14e+01
   8.1737   10.6480   -5.5910  5.14e+01
   8.5866    9.9965   -4.7081  5.14e+01
   8.2378    9.8456   -4.9882  5.14e+01
  12.7906   16.7466   -4.8696  4.94e+01
   9.5282    9.8307   -4.9263  5.14e+01
   9.8859   12.6733   -4.8864  5.14e+01
  12.6501   19.9395   16.3080  4.52e+01
   8.0681   16.3138   26.0374  4.73e+01
  10.1334   14.3446   -3.6713  4.93e+01
  10.5113   15.8287   -0.8814  4.73e+01
   9.5891   19.0308    1.2158  4.73e+01
   9.7458   10.5498   -4.7552  5.14e+01
   9.4319   12.8387   -5.4477  5.14e+01
  13.6877   13.3118   -5.5910  4.93e+01
  13.2200   17.1294   -4.4146  4.93e+01
  10.4129   16.5117   24.9824  4.73e+01
   7.0739   19.7549    7.9250  4.73e+01
   8.0350   11.6587   -4.6031  4.93e+01
  15.7898   16.6452   -0.6945  4.73e+01
   9.9009   12.1879   -5.3381  5.14e+01
  16.0812   19.7394    7.6560  4.52e+01
   9.2881   11.7340   -4.3390  5.14e+01
   9.4650   17.5894   -1.8457  4.73e+01
   5.9771   15.8684   32.1189  4.73e+01
   8.3809   12.9799   -5.5239  5.14e+01
  11.9818   13.3403   -5.0838  4.93e+01
   9.5773   12.6022   -4.0911  5.14e+01
   9.7429   10.4519   -4.9554  5.14e+01
  14.2386   16.4386   -4.9689  4.93e+01
   9.9532   12.4826   -4.1997  5.14e+01
   8.4076    9.1376   -5.0412  5.14e+01
   8.5867    8.4450   -5.2473  5.14e+01
  13.0265   17.1549   -5.3882  4.93e+01
   8.2664   10.0120   -3.7420  4.93e+01
  13.8349   14.8822   -4.7505  4.93e+01
   8.6868   12.0911   -4.9415  5.14e+01
   8.9276   10.5491   -4.5607  5.14e+01
  15.5817   19.1098    3.7733  4.72e+01
  13.6740   12.8337   -4.4788  4.72e+01
  13.6677   15.3702   -4.3442  4.93e+01
  13.2238   18.5870    2.2806  4.72e+01
   9.5817   12.8866   -5.4228  5.14e+01
   9.3594   14.8854   -4.4864  4.93e+01
   9.1900   13.3547   -5.0304  5.14e+01
  15.2919   18.4854    3.9496  4.72e+01
  11.0269   13.9362   -4.8476  4.93e+01
   8.1083   12.0791   -4.8717  4.93e+01
   9.7035   13.3701   -4.4106  5.14e+01
  14.1848   14.8824   -5.2566  4.93e+01
   9.9723   12.1761   -4.2211  5.14e+01
  15.5320   17.0366    2.7235  4.72e+01
   9.3443   13.3749   -4.2569  5.14e+01
   8.2196   10.5421   -5.3588  5.14e+01
   9.3900    9.8685   -4.7015  5.14e+01
  15.6686   16.8582   -1.9291  4.72e+01
  14.6922   18.1490    5.1241  4.72e+01
   9.3352    9.1025   -5.0031  5.14e+01
   8.8731   13.3416   -4.9771  5.14e+01
   9.6359   12.3352   -4.1124  5.14e+01
   9.2695    9.2511   -4.8567  5.14e+01
   9.7717   14.5252   -2.3597  4.72e+01
   8.8199   10.3463   -4.5587  5.14e+01
   5.6485   20.7524    6.6096  4.72e+01
  12.7015   17.5287   -1.1851  4.72e+01
   5.4303   17.2466   33.1651  4.72e+01
   8.6908    9.8741   -4.6072  5.14e+01
   9.1430    9.4892   -4.5120  5.14e+01
  10.1813   14.4910   -4.4284  4.93e+01
  10.0955    9.6875   -5.3738  4.93e+01
  14.4647   16.9345    3.7495  4.72e+01
  16.0808   20.9426    3.5908  4.51e+01
   8.6862    8.3215   -5.2286  5.14e+01
   9.6877   10.1747   -5.0972  5.14e+01
   7.9883    9.9911   -5.1985  5.14e+01
   9.8336   12.7007   -5.3179  5.14e+01
   8.5576   12.7643   -5.0042  5.14e+01
   9.2095   13.2106   -4.3402  5.13e+01
  12.6470   13.2963   -5.0990  4.93e+01
   9.1378   13.5675   -4.6009  5.13e+01
   7.6610    9.3813   -5.2421  4.93e+01
   9.4242   13.5641   -4.5609  5.13e+01
  10.8431   12.3708   -4.8231  4.93e+01
   7.5112   15.6760   27.0694  4.72e+01
  10.0293    9.6416   -4.5217  4.93e+01
  14.2283   16.4299   -5.4218  4.93e+01
   9.2367    8.9147   -5.1355  5.13e+01
  14.0469   13.7871   -5.2370  4.93e+01
   9.0321    8.7394   -4.3287  4.93e+01
  12.1339   14.3768   -1.7285  4.72e+01
   5.0180   20.8068    7.3936  4.72e+01
   4.1974   22.6350    8.5194  4.72e+01
  12.1375   14.9298   -4.6688  4.93e+01
   9.3367    9.6914   -4.5434  5.13e+01
   9.5946   13.4882   -4.4510  5.13e+01
   9.0974   12.2414   -4.1913  5.13e+01
   6.6443   16.9436   32.6360  4.72e+01
   8.5850    9.6284   -4.6819  5.13e+01
   9.8811   12.7864   -4.3157  5.13e+01
  14.1220   13.9188   -5.4709  4.93e+01
   8.9975   12.6357   -4.4203  5.13e+01
   9.3299   12.9302   -4.1262  5.13e+01
   8.6491   10.2754   -4.6458  5.13e+01
  10.0701   11.7193   -4.4933  5.13e+01
  11.8993   17.1839   -2.9162  4.72e+01
   6.4626   13.6097   -4.4275  4.72e+01
  11.8352   16.9007   20.4966  4.72e+01
  11.0570   15.0659   -5.3740  4.93e+01
  11.9354   14.0956   -4.7464  4.93e+01
   5.6136   20.1031    8.0539  4.72e+01
  10.8019   17.5914   19.2809  4.72e+01
  17.4814   18.6397    5.5954  4.51e+01
   9.1574   10.1338   -4.4578  5.13e+01
  14.3525   16.8594   -4.4151  4.92e+01
   9.2793   13.1104   -5.5818  5.13e+01
  15.0153   16.0899   -0.8163  4.72e+01
  13.4015   15.1689   -4.5927  4.92e+01
   8.8083   11.4643   -4.6722  5.13e+01
  11.5262   18.2370   20.4691  4.72e+01
   9.5879   10.6770   -4.3579  5.13e+01
  11.6843   18.5407   19.3895  4.72e+01
  10.6881   19.2822   -0.6316  4.72e+01
   9.7144   10.8505   -4.4468  5.13e+01
  10.0845   12.7248   -4.3751  5.13e+01
   9.4839   14.0967   -3.6024  4.92e+01
   9.5172   12.1298   -4.1447  5.13e+01
   8.5020   13.1625   -5.2611  5.13e+01
   9.9426   13.2307   -4.4404  5.13e+01
  13.8763   17.0997   -5.2364  4.92e+01
   9.6726   10.1494   -3.7979  4.92e+01
  10.0793   12.5181   -4.5056  5.13e+01
   9.1158   16.2541   -3.4600  4.72e+01
   9.2187   13.4615   -4.3776  5.13e+01
   8.0341   11.5470   -4.1947  4.92e+01
   8.6143   11.7368   -4.8617  5.13e+01
  13.3862   17.5961    2.8210  4.72e+01
   8.8260   11.2312   -4.7700  5.13e+01
  16.3003   17.2089    3.6798  4.51e+01
   7.9571   12.7140   -4.8941  4.92e+01
   9.8334   12.9236   -5.2307  5.13e+01
   9.2228   13.5019   -4.7619  5.13e+01
  10.3005   15.6642    0.6699  4.72e+01
   9.0492    9.3295   -4.5017  5.13e+01
   9.8164   13.1917   -4.2707  5.13e+01
   7.8558    9.1841   -5.4997  5.13e+01
   9.0561   13.2875   -5.1836  5.13e+01
  13.5857   13.4531   -5.1418  4.92e+01
   8.9841   11.1573   -4.6533  5.13e+01
  11.1366   13.7858   -0.8056  4.71e+01
  14.4468   15.7131   -0.5297  4.71e+01
  12.9414   16.1871   -2.0401  4.71e+01
   7.6873   11.6661   -4.9386  4.92e+01
  15.7997   17.7794   -3.1505  4.71e+01
   8.3339    8.6364   -5.2738  5.13e+01
   8.5240   10.3649   -4.6751  5.13e+01
   6.8173   11.8132   -5.3308  4.92e+01
  10.4794   16.1647   20.2481  4.51e+01
  10.4053   11.2087   -4.9731  4.92e+01
   9.4541   11.3313   -4.1931  5.13e+01
  11.4157   19.3024   22.9707  4.51e+01
   9.1117    9.8160   -4.4091  5.13e+01
   8.8928   10.4833   -4.5361  5.13e+01
  11.0862   20.2287   -0.0028  4.51e+01
   9.5059   10.4835   -4.4561  5.13e+01
   9.0698   10.3433   -4.4814  5.13e+01
   8.7697   12.8429   -4.5858  5.13e+01
   8.9178   14.4883   -3.9446  4.92e+01
   9.4361   10.0632   -4.5466  5.13e+01
  10.0435   12.3709   -4.8003  5.13e+01
   9.3707   10.4082   -4.4283  5.13e+01
  12.9135   13.9141   -4.9659  4.92e+01
  15.5926   19.8246    1.8705  4.71e+01
   9.5282   14.9768   -4.0510  4.92e+01
   9.2718    9.6227   -4.4999  5.13e+01
  10.8073   18.1958   20.0480  4.71e+01
   4.0863   21.4770    9.8336  4.71e+01
  10.4738   14.3656   -3.8579  4.92e+01
   8.5604   13.0842   -5.1070  5.13e+01
   8.7128   13.3363   -5.2458  5.13e+01
   9.9048   16.3640   19.6972  4.50e+01
   4.6918   16.5977   33.1426  4.71e+01
   9.5583   10.0201   -4.6703  5.13e+01
   9.1135   18.6717   25.1251  4.71e+01
  11.9157   15.3994   -4.7807  4.92e+01
   7.9896   10.3711   -5.4066  5.13e+01
   9.0742   10.5027   -4.4582  5.13e+01
  11.3923   18.1526   -1.0065  4.71e+01
   9.4578   13.1369   -5.1972  5.13e+01
   8.9602   13.4559   -4.6650  5.13e+01
   8.7283   13.4044   -5.0725  5.13e+01
  13.6747   17.2784   -4.3459  4.92e+01
  10.9381   20.5365   -1.4635  4.50e+01
   8.3004   20.0420    6.7820  4.71e+01
   9.0215   10.3292   -4.3835  5.13e+01
  10.0062   11.9478   -4.8662  5.13e+01
   9.6122   13.1962   -5.0769  5.13e+01
   9.7733   13.0038   -5.1065  5.13e+01
   5.0682   16.1471   32.6691  4.71e+01
   9.2531   10.1514   -4.4213  5.13e+01
   8.8629   12.5272   -4.6005  5.13e+01
  14.1668   17.1089   -4.4837  4.92e+01
   8.8131    9.9322   -4.4401  5.13e+01
  12.2805   12.5050   -5.3346  4.92e+01
   9.7964   10.0968   -5.2344  5.13e+01
  11.4722   12.2334   -5.4125  4.92e+01
   9.3604    9.2600   -4.7189  5.13e+01
   8.3659   16.5979    3.7297  4.50e+01
   4.9230   16.3251   33.5440  4.71e+01
   1.3313   17.1014   36.6428  4.50e+01
   8.6542    9.6323   -4.5225  5.13e+01
   9.0230   13.4345   -4.3669  5.12e+01
  12.8311   17.0857    0.1169  4.71e+01
   8.6692   10.7446   -4.7277  5.12e+01
   8.0985   10.2400   -5.2393  5.12e+01
   9.0162   13.5070   -4.9611  5.12e+01
   5.2381   17.3006   31.4050  4.71e+01
   8.3132   10.9259   -5.2709  5.12e+01
  10.4946   10.8637   -4.9317  4.92e+01
   9.6438    9.6476   -5.1794  5.12e+01
   8.7625    8.9660   -4.7318  5.12e+01
  12.6004   16.4093   -4.3638  4.92e+01
   9.1717   13.9713   -3.5449  4.92e+01
   8.9263   13.5834   -4.5172  5.12e+01
   9.3242   11.4717   -4.2058  5.12e+01
  12.9641   17.0621   -4.5267  4.92e+01
   8.2577   10.3742   -5.1119  5.12e+01
   9.7083   14.8837   -3.7323  4.92e+01
  10.5908   10.3194   -4.4290  4.92e+01
  14.1161   14.0656   -5.0070  4.92e+01
  10.6906   14.6941   -5.3277  4.92e+01
   9.2235    9.9063   -4.4437  5.12e+01
   9.9224   12.3546   -5.5337  5.12e+01
  13.9270   17.4114   -4.6291  4.92e+01
   9.9522   10.8321   -4.6518  5.12e+01
   8.4351   15.2868   -4.5685  4.92e+01
   8.7809   13.1796   -4.6157  5.12e+01
   6.4735   17.7528   32.1277  4.71e+01
   3.4653   21.6511    9.4354  4.71e+01
   9.1051    8.8498   -4.8164  5.12e+01
   8.5639   10.7143   -4.9500  5.12e+01
   9.8013   12.3604   -4.0362  5.12e+01
   8.6087   13.4159   -5.3358  5.12e+01
  13.7408   16.5213   -4.0398  4.92e+01
   9.3843   13.5185   -4.7617  5.12e+01
   8.2448   13.8565   -3.8516  4.92e+01
   9.8756   11.0789   -4.3533  5.12e+01
   9.7920   11.3224   -4.2017  5.12e+01
   9.5610   12.9377   -5.4874  5.12e+01
   9.9097   12.5528   -5.3725  5.12e+01
   9.0857    8.6634   -5.0160  5.12e+01
   9.6269   10.5348   -4.3711  5.12e+01
   8.7713   10.7428   -4.5412  5.12e+01
  13.2223   12.9881   -5.3681  4.91e+01
   9.4189   14.6597   -5.0360  4.91e+01
   9.2699   13.2104   -4.0258  5.12e+01
   9.5897   10.2250   -4.5734  5.12e+01
   8.3197   12.8116   -5.2253  5.12e+01
   7.9001    9.9500   -5.3000  5.12e+01
   9.6913   12.6642   -5.4452  5.12e+01
   9.3102   13.6432   -4.4813  5.12e+01
   4.5291   17.6575   31.6306  4.50e+01
  10.7574   11.7486   -5.2960  4.91e+01
   8.8581    9.7986   -4.4355  5.12e+01
  16.2942   17.6158   -1.3583  4.71e+01
   7.0962   11.5729   -5.2236  4.91e+01
   9.7631   12.7797   -4.0326  5.12e+01
   9.9222   15.0323   -1.9149  4.70e+01
   9.7797   13.1807   -4.9134  5.12e+01
   8.2080    8.1533   -5.5095  5.12e+01
   8.8088   10.3276   -4.3896  5.12e+01
  10.0223   11.6623   -4.8612  5.12e+01
   6.5041   11.8611   -5.4545  4.91e+01
  12.8616   14.8642   -4.5624  4.91e+01
   9.8782   12.6697   -5.2589  5.12e+01
  15.7712   18.0136    3.1569  4.70e+01
   8.5207   11.2152   -4.9790  5.12e+01
   8.4623   10.0877   -4.5540  5.12e+01
   8.4605   11.8558   -5.0824  5.12e+01
   8.5148   13.2975   -5.3227  5.12e+01
   9.8275   10.6808   -4.4061  5.12e+01
  14.3018   15.7675   -4.5741  4.91e+01
   5.3833   22.6651    6.4973  4.50e+01
   9.3802    9.2455   -4.9911  5.12e+01
   7.9365   15.1678   -4.8760  4.91e+01
  16.4660   18.3050    0.4123  4.70e+01
  14.5608   19.9029    2.3652  4.70e+01
  11.7866   17.1377   18.7351  4.70e+01
   9.3389    8.6576   -5.5049  5.12e+01
   9.4409    9.6621   -4.7818  5.12e+01
  11.0556   13.8709   -4.4297  4.91e+01
   8.5562   10.2700   -4.5482  5.12e+01
  11.9191   17.7690   17.8247  4.70e+01
  13.1780   16.6230   -4.3187  4.91e+01
   9.6360   13.4158   -4.9176  5.12e+01
   9.4380   10.1958   -4.4250  5.12e+01
  10.3385   14.5289   -5.0064  4.91e+01
   7.8711    7.5853   -5.3407  4.91e+01
   9.0248    8.1302   -5.4027  5.12e+01
   9.6750   16.3153   -2.4307  4.70e+01
  15.6949   19.5308   -1.7469  4.70e+01
   6.9036   17.5232    8.0891  4.49e+01
   9.1972   13.2738   -5.4808  5.12e+01
   9.0762    9.5283   -4.4814  5.12e+01
   9.1489    8.5666   -5.2024  5.12e+01
  11.3235   17.5247    1.7026  4.70e+01
   9.8770   12.9502   -5.0880  5.12e+01
  10.0649   11.7723   -5.0255  5.12e+01
   9.8354    8.5851   -5.1947  4.91e+01
  11.6751   17.2035   22.1554  4.70e+01
   8.1281   10.0008   -4.8759  5.12e+01
   9.5922    9.8345   -4.8780  5.12e+01
  11.3570   17.4448   -3.6137  4.70e+01
   8.4072   13.0182   -5.2621  5.12e+01
   9.5345   13.2740   -4.0921  5.12e+01
  12.7905   17.1307   -4.7917  4.91e+01
   8.4797    9.8536   -4.5851  5.12e+01
   4.6983   16.3570   32.8079  4.70e+01
  13.5605   16.0327   -1.5054  4.70e+01
  13.7625   13.3199   -5.5142  4.91e+01
  11.2066   16.4669   21.7360  4.70e+01
   8.5516   11.4255   -4.9790  5.12e+01
   9.1970    9.0909   -4.5286  5.12e+01
   9.3527   13.6867   -4.5267  5.12e+01
   8.7944   13.5297   -4.7998  5.12e+01
  10.0435   12.6557   -4.9334  5.12e+01
   9.8095   17.7551   21.6376  4.70e+01
   9.3148   16.5429   23.8739  4.70e+01
   8.9071    9.4771   -4.4643  5.12e+01
   9.0613   10.7101   -4.3754  5.12e+01
   8.1890    9.9497   -4.8167  5.12e+01
   4.5766   17.4515   30.1510  4.49e+01
   8.5266   13.3082   -5.5927  5.12e+01
   8.1502    9.3385   -5.0711  5.12e+01
  14.0545   17.2028   -4.7984  4.91e+01
   9.8270   10.1667   -4.6991  5.12e+01
   9.2715    9.6176   -4.4206  5.12e+01
   9.5506   13.4504   -4.2277  5.12e+01
   9.3999    9.7025   -4.5595  5.12e+01
